LANDSAT 9               
1 49260U 21088A   23187.93914096  .00000455  00000+0  11114-3 0  9996
2 49260  98.2291 257.5921 0001151  96.8364 263.2966 14.57101034 94260
